{"type": "FeatureCollection", "features": [ {"type": "Feature", "properties": {"norad_id": 36280, "name": "FENGYUN 1C DEB", "group": "fengyun-1c-debris", "lat": -33.67224618381934, "lon": -172.97389148134195, "alt_km": 901.66424176912, "timestamp": "2025-12-09T20:37:09.575774+00:00", "meta": {"OBJECT_NAME": "FENGYUN 1C DEB", "OBJECT_ID": "1999-025DXH", "EPOCH": "2025-12-08T20:36:31.756896", "MEAN_MOTION": 14.09721696, "ECCENTRICITY": 0.00633707, "INCLINATION": 98.7669, "RA_OF_ASC_NODE": 11.9526, "ARG_OF_PERICENTER": 76.4242, "MEAN_ANOMALY": 102.7342, "EPHEMERIS_TYPE": 0, "CLASSIFICATION_TYPE": "U", "NORAD_CAT_ID": 36280, "ELEMENT_SET_NO": 999, "REV_AT_EPOCH": 86299, "BSTAR": 0.0014880766, "MEAN_MOTION_DOT": 2.619e-05, "MEAN_MOTION_DDOT": 0}, "tle": {"line1": "1 36280U 99025DXH 25342.85870089  .00002619  00000+0  14881-2 0  9996", "line2": "2 36280  98.7669  11.9526 0063370  76.4242 102.7342 14.09721696862992"}}, "geometry": {"type": "Point", "coordinates": [-172.97389148134195, -33.67224618381934]}}, {"type": "Feature", "properties": {"norad_id": 36281, "name": "FENGYUN 1C DEB", "group": "fengyun-1c-debris", "lat": -52.76457732044857, "lon": -81.65151603039077, "alt_km": 1254.3555814439824, "timestamp": "2025-12-09T20:37:09.575784+00:00", "meta": {"OBJECT_NAME": "FENGYUN 1C DEB", "OBJECT_ID": "1999-025DXJ", "EPOCH": "2025-12-09T12:04:06.856032", "MEAN_MOTION": 13.60222067, "ECCENTRICITY": 0.02896937, "INCLINATION": 99.2583, "RA_OF_ASC_NODE": 265.6183, "ARG_OF_PERICENTER": 119.2294, "MEAN_ANOMALY": 243.8148, "EPHEMERIS_TYPE": 0, "CLASSIFICATION_TYPE": "U", "NORAD_CAT_ID": 36281, "ELEMENT_SET_NO": 999, "REV_AT_EPOCH": 84473, "BSTAR": 0.0037376887, "MEAN_MOTION_DOT": 3.656e-05, "MEAN_MOTION_DDOT": 0}, "tle": {"line1": "1 36281U 99025DXJ 25343.50285713  .00003656  00000+0  37377-2 0  9991", "line2": "2 36281  99.2583 265.6183 0289693 119.2294 243.8148 13.60222067844739"}}, "geometry": {"type": "Point", "coordinates": [-81.65151603039077, -52.76457732044857]}}, {"type": "Feature", "properties": {"norad_id": 36283, "name": "FENGYUN 1C DEB", "group": "fengyun-1c-debris", "lat": 63.78406081425145, "lon": -71.38859204098908, "alt_km": 495.2357508664636, "timestamp": "2025-12-09T20:37:09.575795+00:00", "meta": {"OBJECT_NAME": "FENGYUN 1C DEB", "OBJECT_ID": "1999-025DXL", "EPOCH": "2025-12-09T02:47:32.160480", "MEAN_MOTION": 15.05915061, "ECCENTRICITY": 0.00683492, "INCLINATION": 99.4217, "RA_OF_ASC_NODE": 307.4131, "ARG_OF_PERICENTER": 61.5319, "MEAN_ANOMALY": 299.2764, "EPHEMERIS_TYPE": 0, "CLASSIFICATION_TYPE": "U", "NORAD_CAT_ID": 36283, "ELEMENT_SET_NO": 999, "REV_AT_EPOCH": 66611, "BSTAR": 0.0023687932, "MEAN_MOTION_DOT": 0.00036387, "MEAN_MOTION_DDOT": 0}, "tle": {"line1": "1 36283U 99025DXL 25343.11634445  .00036387  00000+0  23688-2 0  9997", "line2": "2 36283  99.4217 307.4131 0068349  61.5319 299.2764 15.05915061666112"}}, "geometry": {"type": "Point", "coordinates": [-71.38859204098908, 63.78406081425145]}}, {"type": "Feature", "properties": {"norad_id": 36644, "name": "FENGYUN 1C DEB", "group": "fengyun-1c-debris", "lat": 37.58193150989039, "lon": -50.5908706585135, "alt_km": 885.2867264648758, "timestamp": "2025-12-09T20:37:09.575805+00:00", "meta": {"OBJECT_NAME": "FENGYUN 1C DEB", "OBJECT_ID": "1999-025DXN", "EPOCH": "2025-12-06T15:56:19.275936", "MEAN_MOTION": 13.59167664, "ECCENTRICITY": 0.02857814, "INCLINATION": 98.4234, "RA_OF_ASC_NODE": 120.1104, "ARG_OF_PERICENTER": 196.1478, "MEAN_ANOMALY": 163.0413, "EPHEMERIS_TYPE": 0, "CLASSIFICATION_TYPE": "U", "NORAD_CAT_ID": 36644, "ELEMENT_SET_NO": 999, "REV_AT_EPOCH": 61485, "BSTAR": 0.0026178612, "MEAN_MOTION_DOT": 2.485e-05, "MEAN_MOTION_DDOT": 0}, "tle": {"line1": "1 36644U 99025DXN 25340.66411199  .00002485  00000+0  26179-2 0  9994", "line2": "2 36644  98.4234 120.1104 0285781 196.1478 163.0413 13.59167664614851"}}, "geometry": {"type": "Point", "coordinates": [-50.5908706585135, 37.58193150989039]}}, {"type": "Feature", "properties": {"norad_id": 36647, "name": "FENGYUN 1C DEB", "group": "fengyun-1c-debris", "lat": -1.8684981209581315, "lon": 125.7277339024458, "alt_km": 821.0296232485789, "timestamp": "2025-12-09T20:37:09.575816+00:00", "meta": {"OBJECT_NAME": "FENGYUN 1C DEB", "OBJECT_ID": "1999-025DXR", "EPOCH": "2025-12-09T15:26:26.721312", "MEAN_MOTION": 13.8878437, "ECCENTRICITY": 0.02392346, "INCLINATION": 96.1218, "RA_OF_ASC_NODE": 125.385, "ARG_OF_PERICENTER": 308.9455, "MEAN_ANOMALY": 49.0604, "EPHEMERIS_TYPE": 0, "CLASSIFICATION_TYPE": "U", "NORAD_CAT_ID": 36647, "ELEMENT_SET_NO": 999, "REV_AT_EPOCH": 30369, "BSTAR": 0.0035802374, "MEAN_MOTION_DOT": 5.41e-05, "MEAN_MOTION_DDOT": 0}, "tle": {"line1": "1 36647U 99025DXR 25343.64336483  .00005410  00000+0  35802-2 0  9994", "line2": "2 36647  96.1218 125.3850 0239234 308.9455  49.0604 13.88784370303699"}}, "geometry": {"type": "Point", "coordinates": [125.7277339024458, -1.8684981209581315]}}, {"type": "Feature", "properties": {"norad_id": 36652, "name": "FENGYUN 1C DEB", "group": "fengyun-1c-debris", "lat": 4.415395122600457, "lon": -113.31668600973344, "alt_km": 854.5043728565333, "timestamp": "2025-12-09T20:37:09.575826+00:00", "meta": {"OBJECT_NAME": "FENGYUN 1C DEB", "OBJECT_ID": "1999-025DXW", "EPOCH": "2025-12-09T11:21:32.394240", "MEAN_MOTION": 14.22778025, "ECCENTRICITY": 0.00506695, "INCLINATION": 98.9411, "RA_OF_ASC_NODE": 65.5953, "ARG_OF_PERICENTER": 2.9093, "MEAN_ANOMALY": 357.237, "EPHEMERIS_TYPE": 0, "CLASSIFICATION_TYPE": "U", "NORAD_CAT_ID": 36652, "ELEMENT_SET_NO": 999, "REV_AT_EPOCH": 64278, "BSTAR": 0.0024937936, "MEAN_MOTION_DOT": 5.625e-05, "MEAN_MOTION_DDOT": 0}, "tle": {"line1": "1 36652U 99025DXW 25343.47329160  .00005625  00000+0  24938-2 0  9991", "line2": "2 36652  98.9411  65.5953 0050669   2.9093 357.2370 14.22778025642780"}}, "geometry": {"type": "Point", "coordinates": [-113.31668600973344, 4.415395122600457]}}, {"type": "Feature", "properties": {"norad_id": 36657, "name": "FENGYUN 1C DEB", "group": "fengyun-1c-debris", "lat": -79.7416922273715, "lon": -159.2180055030424, "alt_km": 753.6622742892623, "timestamp": "2025-12-09T20:37:09.575836+00:00", "meta": {"OBJECT_NAME": "FENGYUN 1C DEB", "OBJECT_ID": "1999-025DYB", "EPOCH": "2025-12-08T04:02:55.491648", "MEAN_MOTION": 14.6546844, "ECCENTRICITY": 0.01059394, "INCLINATION": 99.4121, "RA_OF_ASC_NODE": 132.4216, "ARG_OF_PERICENTER": 80.8713, "MEAN_ANOMALY": 280.4454, "EPHEMERIS_TYPE": 0, "CLASSIFICATION_TYPE": "U", "NORAD_CAT_ID": 36657, "ELEMENT_SET_NO": 999, "REV_AT_EPOCH": 66189, "BSTAR": 0.00092233572, "MEAN_MOTION_DOT": 5.362e-05, "MEAN_MOTION_DDOT": 0}, "tle": {"line1": "1 36657U 99025DYB 25342.16869782  .00005362  00000+0  92234-3 0  9993", "line2": "2 36657  99.4121 132.4216 0105939  80.8713 280.4454 14.65468440661897"}}, "geometry": {"type": "Point", "coordinates": [-159.2180055030424, -79.7416922273715]}}, {"type": "Feature", "properties": {"norad_id": 36659, "name": "FENGYUN 1C DEB", "group": "fengyun-1c-debris", "lat": -6.1057663749786935, "lon": -11.748365017488128, "alt_km": 937.5068256326731, "timestamp": "2025-12-09T20:37:09.575847+00:00", "meta": {"OBJECT_NAME": "FENGYUN 1C DEB", "OBJECT_ID": "1999-025DYD", "EPOCH": "2025-12-08T06:34:16.718304", "MEAN_MOTION": 13.87363788, "ECCENTRICITY": 0.01358311, "INCLINATION": 99.8536, "RA_OF_ASC_NODE": 345.5157, "ARG_OF_PERICENTER": 86.5848, "MEAN_ANOMALY": 275.0833, "EPHEMERIS_TYPE": 0, "CLASSIFICATION_TYPE": "U", "NORAD_CAT_ID": 36659, "ELEMENT_SET_NO": 999, "REV_AT_EPOCH": 60363, "BSTAR": 0.0010441294, "MEAN_MOTION_DOT": 1.275e-05, "MEAN_MOTION_DDOT": 0}, "tle": {"line1": "1 36659U 99025DYD 25342.27380461  .00001275  00000+0  10441-2 0  9997", "line2": "2 36659  99.8536 345.5157 0135831  86.5848 275.0833 13.87363788603631"}}, "geometry": {"type": "Point", "coordinates": [-11.748365017488128, -6.1057663749786935]}}, {"type": "Feature", "properties": {"norad_id": 36664, "name": "FENGYUN 1C DEB", "group": "fengyun-1c-debris", "lat": -34.92727483860318, "lon": 14.622499223100913, "alt_km": 937.9556440690731, "timestamp": "2025-12-09T20:37:09.575857+00:00", "meta": {"OBJECT_NAME": "FENGYUN 1C DEB", "OBJECT_ID": "1999-025DYJ", "EPOCH": "2025-12-09T07:14:26.829888", "MEAN_MOTION": 14.17954452, "ECCENTRICITY": 0.0173538, "INCLINATION": 98.6046, "RA_OF_ASC_NODE": 8.0125, "ARG_OF_PERICENTER": 109.5601, "MEAN_ANOMALY": 252.4404, "EPHEMERIS_TYPE": 0, "CLASSIFICATION_TYPE": "U", "NORAD_CAT_ID": 36664, "ELEMENT_SET_NO": 999, "REV_AT_EPOCH": 63702, "BSTAR": 0.00014026, "MEAN_MOTION_DOT": 2.91e-06, "MEAN_MOTION_DDOT": 0}, "tle": {"line1": "1 36664U 99025DYJ 25343.30169942  .00000291  00000+0  14026-3 0  9998", "line2": "2 36664  98.6046   8.0125 0173538 109.5601 252.4404 14.17954452637026"}}, "geometry": {"type": "Point", "coordinates": [14.622499223100913, -34.92727483860318]}}, {"type": "Feature", "properties": {"norad_id": 36668, "name": "FENGYUN 1C DEB", "group": "fengyun-1c-debris", "lat": -19.21463743665179, "lon": -2.6368312162697225, "alt_km": 856.1758556028935, "timestamp": "2025-12-09T20:37:09.575867+00:00", "meta": {"OBJECT_NAME": "FENGYUN 1C DEB", "OBJECT_ID": "1999-025DYN", "EPOCH": "2025-12-06T06:11:01.660704", "MEAN_MOTION": 14.15370728, "ECCENTRICITY": 0.00512171, "INCLINATION": 98.6104, "RA_OF_ASC_NODE": 350.8586, "ARG_OF_PERICENTER": 244.8054, "MEAN_ANOMALY": 114.7804, "EPHEMERIS_TYPE": 0, "CLASSIFICATION_TYPE": "U", "NORAD_CAT_ID": 36668, "ELEMENT_SET_NO": 999, "REV_AT_EPOCH": 57326, "BSTAR": 0.0010743762, "MEAN_MOTION_DOT": 2.078e-05, "MEAN_MOTION_DDOT": 0}, "tle": {"line1": "1 36668U 99025DYN 25340.25765811  .00002078  00000+0  10744-2 0  9997", "line2": "2 36668  98.6104 350.8586 0051217 244.8054 114.7804 14.15370728573263"}}, "geometry": {"type": "Point", "coordinates": [-2.6368312162697225, -19.21463743665179]}}]}